{
  "links" : {
    "next" : "https://api.nasa.gov/neo/rest/v1/feed?start_date=1996-06-23&end_date=1996-06-23&detailed=true&api_key=t0TVs3DtDT2H8Oy2Zy8m2eVrNsAVKAexjcZXUckd",
    "prev" : "https://api.nasa.gov/neo/rest/v1/feed?start_date=1996-06-21&end_date=1996-06-21&detailed=true&api_key=t0TVs3DtDT2H8Oy2Zy8m2eVrNsAVKAexjcZXUckd",
    "self" : "https://api.nasa.gov/neo/rest/v1/feed?start_date=1996-06-22&end_date=1996-06-22&detailed=true&api_key=t0TVs3DtDT2H8Oy2Zy8m2eVrNsAVKAexjcZXUckd"
  },
  "element_count" : 5,
  "near_earth_objects" : {
    "1996-06-22" : [ {
      "links" : {
        "self" : "https://api.nasa.gov/neo/rest/v1/neo/3776033?api_key=t0TVs3DtDT2H8Oy2Zy8m2eVrNsAVKAexjcZXUckd"
      },
      "neo_reference_id" : "3776033",
      "name" : "(2017 MG3)",
      "nasa_jpl_url" : "http://ssd.jpl.nasa.gov/sbdb.cgi?sstr=3776033",
      "absolute_magnitude_h" : 21.51,
      "estimated_diameter" : {
        "kilometers" : {
          "estimated_diameter_min" : 0.1326034968,
          "estimated_diameter_max" : 0.2965104328
        },
        "meters" : {
          "estimated_diameter_min" : 132.6034967669,
          "estimated_diameter_max" : 296.5104328249
        },
        "miles" : {
          "estimated_diameter_min" : 0.0823959674,
          "estimated_diameter_max" : 0.1842429842
        },
        "feet" : {
          "estimated_diameter_min" : 435.0508563326,
          "estimated_diameter_max" : 972.8032884292
        }
      },
      "is_potentially_hazardous_asteroid" : false,
      "close_approach_data" : [ {
        "close_approach_date" : "1996-06-22",
        "epoch_date_close_approach" : 835426800000,
        "relative_velocity" : {
          "kilometers_per_second" : "13.8133903007",
          "kilometers_per_hour" : "49728.2050825477",
          "miles_per_hour" : "30899.1727636531"
        },
        "miss_distance" : {
          "astronomical" : "0.2797183974",
          "lunar" : "108.8104553223",
          "kilometers" : "41845276",
          "miles" : "26001450"
        },
        "orbiting_body" : "Earth"
      } ],
      "orbital_data" : {
        "orbit_id" : "17",
        "orbit_determination_date" : "2017-09-20 06:19:03",
        "orbit_uncertainty" : "5",
        "minimum_orbit_intersection" : ".225123",
        "jupiter_tisserand_invariant" : "3.346",
        "epoch_osculation" : "2458000.5",
        "eccentricity" : ".4915717064452577",
        "semi_major_axis" : "2.308173282633428",
        "inclination" : "19.80103120385666",
        "ascending_node_longitude" : "258.7854965898694",
        "orbital_period" : "1280.858166029026",
        "perihelion_distance" : "1.173540603317962",
        "perihelion_argument" : "42.56499788644889",
        "aphelion_distance" : "3.442805961948894",
        "perihelion_time" : "2457962.343654252555",
        "mean_anomaly" : "10.72428222998803",
        "mean_motion" : ".2810615644635254",
        "equinox" : "J2000"
      }
    }, {
      "links" : {
        "self" : "https://api.nasa.gov/neo/rest/v1/neo/2469737?api_key=t0TVs3DtDT2H8Oy2Zy8m2eVrNsAVKAexjcZXUckd"
      },
      "neo_reference_id" : "2469737",
      "name" : "469737 (2005 NW44)",
      "nasa_jpl_url" : "http://ssd.jpl.nasa.gov/sbdb.cgi?sstr=2469737",
      "absolute_magnitude_h" : 20.4,
      "estimated_diameter" : {
        "kilometers" : {
          "estimated_diameter_min" : 0.2210828104,
          "estimated_diameter_max" : 0.4943561926
        },
        "meters" : {
          "estimated_diameter_min" : 221.0828103591,
          "estimated_diameter_max" : 494.3561926196
        },
        "miles" : {
          "estimated_diameter_min" : 0.137374447,
          "estimated_diameter_max" : 0.3071786018
        },
        "feet" : {
          "estimated_diameter_min" : 725.3373275385,
          "estimated_diameter_max" : 1621.9035709942
        }
      },
      "is_potentially_hazardous_asteroid" : false,
      "close_approach_data" : [ {
        "close_approach_date" : "1996-06-22",
        "epoch_date_close_approach" : 835426800000,
        "relative_velocity" : {
          "kilometers_per_second" : "10.2031301159",
          "kilometers_per_hour" : "36731.2684172407",
          "miles_per_hour" : "22823.3817562572"
        },
        "miss_distance" : {
          "astronomical" : "0.0856248101",
          "lunar" : "33.3080482483",
          "kilometers" : "12809289",
          "miles" : "7959323"
        },
        "orbiting_body" : "Earth"
      } ],
      "orbital_data" : {
        "orbit_id" : "56",
        "orbit_determination_date" : "2017-04-06 09:19:15",
        "orbit_uncertainty" : "0",
        "minimum_orbit_intersection" : ".0539712",
        "jupiter_tisserand_invariant" : "7.350",
        "epoch_osculation" : "2458000.5",
        "eccentricity" : ".4833444866273818",
        "semi_major_axis" : ".7793443512152165",
        "inclination" : "6.057246557704326",
        "ascending_node_longitude" : "114.4423845256922",
        "orbital_period" : "251.3000151466841",
        "perihelion_distance" : ".4026525558711477",
        "perihelion_argument" : ".7495086959431972",
        "aphelion_distance" : "1.156036146559285",
        "perihelion_time" : "2457958.897327115537",
        "mean_anomaly" : "59.5979360751912",
        "mean_motion" : "1.432550649827329",
        "equinox" : "J2000"
      }
    } ]
  }
}